ONEWEB-0349             
1 49281U 21090C   25003.46053449  .00000043  00000+0  74156-4 0  9994
2 49281  87.9242  19.8402 0001759  89.3455 270.7880 13.20771971159902
ONEWEB-0353             
1 49282U 21090D   25003.50703750 -.00000010  00000+0 -62009-4 0  9997
2 49282  87.8987  35.0322 0001484  94.5155 265.6144 13.14502809157997
ONEWEB-0356             
1 49283U 21090E   25003.45895804  .00000102  00000+0  22008-3 0  9998
2 49283  87.9243  19.8332 0002182  65.5373 294.5987 13.20771499159900
ONEWEB-0358             
1 49284U 21090F   25003.48892420 -.00000370  00000+0 -94289-3 0  9992
2 49284  87.9251  19.8161 0002080  88.5791 271.5581 13.20773011160635
ONEWEB-0359             
1 49285U 21090G   25003.48578723 -.00000116  00000+0 -31760-3 0  9993
2 49285  87.9244  19.8314 0002254  96.3532 263.7858 13.20771866160615
ONEWEB-0360             
1 49286U 21090H   25003.47631603  .00000008  00000+0 -13455-4 0  9991
2 49286  87.9240  19.8386 0001934  93.7105 266.4249 13.20772020159921
ONEWEB-0361             
1 49287U 21090J   25003.45737811  .00000076  00000+0  15547-3 0  9995
2 49287  87.9241  19.8372 0001829  85.9901 274.1441 13.20771124160373
ONEWEB-0362             
1 49288U 21090K   25003.59694103  .00000054  00000+0  10201-3 0  9995
2 49288  87.9166  50.2852 0001935 106.2047 253.9299 13.19727966157069
